[{"OBJECT_NAME":"HAIYANG-2B","OBJECT_ID":"2018-081A","EPOCH":"2026-03-10T00:03:41.001696","MEAN_MOTION":13.79306715,"ECCENTRICITY":0.0001262,"INCLINATION":99.3339,"RA_OF_ASC_NODE":79.2399,"ARG_OF_PERICENTER":141.6934,"MEAN_ANOMALY":218.4307,"EPHEMERIS_TYPE":0,"CLASSIFICATION_TYPE":"U","NORAD_CAT_ID":43655,"ELEMENT_SET_NO":999,"REV_AT_EPOCH":37125,"BSTAR":-0.00018769625,"MEAN_MOTION_DOT":-2.37e-6,"MEAN_MOTION_DDOT":0},{"OBJECT_NAME":"SL-8 R\/B","OBJECT_ID":"1994-024B","EPOCH":"2026-03-09T21:54:44.200512","MEAN_MOTION":13.78234833,"ECCENTRICITY":0.00112673,"INCLINATION":82.9409,"RA_OF_ASC_NODE":262.5737,"ARG_OF_PERICENTER":69.9539,"MEAN_ANOMALY":290.283,"EPHEMERIS_TYPE":0,"CLASSIFICATION_TYPE":"U","NORAD_CAT_ID":23093,"ELEMENT_SET_NO":999,"REV_AT_EPOCH":7019,"BSTAR":0.00017104335,"MEAN_MOTION_DOT":1.88e-6,"MEAN_MOTION_DDOT":0}]
